{"ADCS":null,"COLOR":null,"TRANSMITTER_FREQUENCIES":null,"MAJOR_EVENTS":"Successfully launched on May 9, 2024, marking China's first MEO broadband communication satellite deployment.","MATERIAL_COMPOSITION":null,"CONSTELLATION_NAME":null,"RELATED_SATELLITES":"Zhihui Tianwang-1 01B","SOURCES":["https://www.tsinghua.edu.cn/en/info/1399/14043.htm","https://nextspaceflight.com/launches/details/7556","https://forum.nasaspaceflight.com/index.php?topic=60694.0"],"NORAD_CAT_ID":"59705","OBJECT_ID":"2024-087A","NAME":"Zhihui Tianwang-1 01A","ALT_NAME":"Zhihui Tianwang 1-01A","BUS":"ZHTW","CONFIGURATION":null,"COUNTRY":"CN","LENGTH":"3","DIAMETER":"2","SPAN":"20","DRY_MASS":"2000","EQUIPMENT":null,"LAUNCH_DATE":"2024-05-09T01:43:00.000Z","STABLE_DATE":"2024-05-09T02:08:00.000Z","LAUNCH_MASS":"2000","LAUNCH_SITE":"Xichang Satellite Launch Center, China","LAUNCH_PAD":"LC-2","LAUNCH_VEHICLE":"Long March 3B/E","LIFETIME":null,"MANUFACTURER":"SAST","MISSION":"The Zhihui Tianwang-1 01A satellite is part of China's first medium Earth orbit (MEO) broadband communication satellite system. It serves as an experimental platform for space-based network routing and switching, elastic capacity on-demand coverage, and long-duration inter-satellite laser communication.","MOTOR":"490 N engine","OWNER":"Shanghai Qingshen Technology Development Co. Ltd.","PAYLOAD":"ZHTW 1-01A","POWER":null,"PURPOSE":"To demonstrate and validate core technologies in integrated space-air-ground 6G communications and satellite internet.","RCS":"","SHAPE":"Box with two panels","VMAG":null,"STATUS":"+","TYPE":1,"INCLINATION":53.1233,"RA_OF_ASC_NODE":172.9675,"MEAN_MOTION":2.00564824,"ARG_OF_PERICENTER":203.6425,"MEAN_ANOMALY":156.3183,"EPOCH":"2026-04-20T07:04:15.630Z","TLE_LINE_1":"1 59705U 24087A   26110.29462535  .00000038  00000-0  00000-0 0  9994","TLE_LINE_2":"2 59705  53.1233 172.9675 0025869 203.6425 156.3183  2.00564824 14142","DECAY_DATE":null,"summary":"The Zhihui Tianwang-1 01A satellite, also known as Zhihui Tianwang 1-01A, was successfully launched on May 9, 2024, from the Xichang Satellite Launch Center in China using a Long March 3B/E launch vehicle. This medium Earth orbit (MEO) broadband communication satellite has dimensions of 3 meters in length and 2 meters in diameter with a span of 20 meters. It weighs approximately 2,000 kg at launch and is equipped with a 490 N engine for propulsion. The satellite is part of an experimental platform designed to validate core technologies related to integrated space-air-ground 6G communications and satellite internet services. Manufactured by SAST, the Zhihui Tianwang-1 01A serves as a critical component in China's first MEO broadband communication system, aiming to advance network routing and switching technology, on-demand coverage capacity, and long-duration inter-satellite laser communication capabilities. The mission is owned by Shanghai Qingshen Technology Development Co. Ltd.","reference_urls":null,"anomaly_flags":null,"anomaly_resolved":0,"last_reviewed":null}